ONEWEB-0587             
1 54654C 22166N   22362.38074488  .00004124  00000-0  41164-3 0  3622
2 54654  86.5186 149.7530 0010988 162.3337 277.1813 14.91602889    18
ONEWEB-0589             
1 54655C 22166P   22362.37028192  .00005913  00000-0  57889-3 0  3621
2 54655  86.5171 149.7434 0013519 171.7167 264.2646 14.92354536    19
ONEWEB-0590             
1 54656C 22166Q   22362.30675183  .00008198  00000-0  80422-3 0  3620
2 54656  86.5164 149.7714 0013276 170.8228 278.4324 14.92270125    12
ONEWEB-0591             
1 54657C 22166R   22362.44008516  .00001296  00000-0  12724-3 0  3628
2 54657  86.5196 149.7170 0013260 169.9165 272.9516 14.92252201    13
ONEWEB-0592             
1 54658C 22166S   22362.29220323 -.00922811  00000-0 -12706-0 0  3628
2 54658  86.4523 149.7938 0008176 170.2470 352.6626 14.79312828    18
ONEWEB-0593             
1 54659C 22166T   22362.31161294  .00007418  00000-0  73891-3 0  3623
2 54659  86.5186 149.7825 0011282 163.2558 271.0522 14.91682036    15
ONEWEB-0594             
1 54660C 22166U   22362.30676340  .00007985  00000-0  78807-3 0  3628
2 54660  86.5179 149.7763 0012765 167.0446 266.2226 14.92039143    18
ONEWEB-0595             
1 54661C 22166V   22362.37930970  .00004535  00000-0  45148-3 0  3628
2 54661  86.5188 149.7525 0011396 163.0553 276.1660 14.91707919    13
ONEWEB-0596             
1 54662C 22166W   22362.38143933  .00032061  00000-0  32037-2 0  3622
2 54662  86.5174 149.7461 0010735 162.4190 277.6303 14.91535896    17
ONEWEB-0597             
1 54663C 22166X   22362.37309442  .00005622  00000-0  55263-3 0  3621
2 54663  86.5163 149.7426 0013196 169.1081 270.6518 14.92195019    15
ONEWEB-0600             
1 54664C 22166Y   22362.37066387  .00005880  00000-0  57588-3 0  3628
2 54664  86.5168 149.7430 0013433 171.5679 265.3428 14.92341694    13
ONEWEB-0601             
1 54665C 22166Z   22362.50396248 -.00001735  00000-0 -17065-3 0  3629
2 54665  86.5194 149.6893 0013176 168.2860 252.7111 14.92183472    11
ONEWEB-0602             
1 54666C 22166AA  22362.30606896  .00008096  00000-0  79723-3 0  3625
2 54666  86.5191 149.7767 0013024 168.1714 267.0678 14.92122051    12
ONEWEB-0603             
1 54667C 22166AB  22362.29771249 -.01065042  00000-0 -15325-0 0  3621
2 54667  86.5436 149.8295 0008882 169.9997 353.4345 14.77574339    14
ONEWEB-0604             
1 54668C 22166AC  22362.27133516 -.00942981  00000-0 -12644-0 0  3625
2 54668  86.4556 149.8117 0008295 168.9784 261.9926 14.80454841    18
ONEWEB-0605             
1 54669C 22166AD  22362.28246942 -.01066923  00000-0 -15513-0 0  3627
2 54669  86.5460 149.8419 0007931 173.3502 257.4908 14.77133983    10
ONEWEB-0606             
1 54670C 22166AE  22362.28559443 -.00938929  00000-0 -12381-0 0  3625
2 54670  86.4599 149.8035 0008663 166.4836 358.6651 14.81153892    19
ONEWEB-0607             
1 54671C 22166AF  22362.28524720 -.01042674  00000-0 -13468-0 0  3627
2 54671  86.5511 149.8146 0008782 167.5026  15.7438 14.82126107    17
ONEWEB-0608             
1 54672C 22166AG  22362.27201803 -.00927012  00000-0 -11279-0 0  3626
2 54672  86.5678 149.8147 0012631 167.0749  22.3226 14.84472171    14
ONEWEB-0610             
1 54673C 22166AH  22362.28417081 -.00880181  00000-0 -11339-0 0  3627
2 54673  86.4629 149.7950 0009294 165.6794   4.2125 14.82067029    13
ONEWEB-0611             
1 54674C 22166AJ  22362.27618471 -.00934600  00000-0 -11758-0 0  3624
2 54674  86.4684 149.7979 0011599 163.3769  16.2623 14.83098415    14
ONEWEB-0612             
1 54675C 22166AK  22362.27273562 -.00961966  00000-0 -13057-0 0  3622
2 54675  86.4555 149.8115 0007954 171.0938 257.6814 14.79960600    11
ONEWEB-0615             
1 54676C 22166AL  22362.27965693 -.00949287  00000-0 -12135-0 0  3624
2 54676  86.4649 149.7995 0010609 162.2168  14.1369 14.82451064    13
ONEWEB-0655             
1 54677C 22166AM  22362.28003888 -.00914788  00000-0 -11653-0 0  3627
2 54677  86.4605 149.7917 0010305 164.0491  10.5275 14.82565898    19
ONEWEB-0659             
1 54678C 22166AN  22362.31299026  .00007281  00000-0  72717-3 0  3623
2 54678  86.5175 149.7764 0010874 162.3318 272.4708 14.91581644    10
ONEWEB-0685             
1 54679C 22166AP  22362.29354582 -.00912417  00000-0 -12455-0 0  3628
2 54679  86.4573 149.8031 0008256 171.1091 354.9988 14.79665060    14
ONEWEB-0712             
1 54680C 22166AQ  22362.37410137  .00005456  00000-0  53744-3 0  3621
2 54680  86.5190 149.7467 0012964 167.6296 271.5863 14.92113072    14
ONEWEB-0714             
1 54681C 22166AR  22362.37134674  .00005853  00000-0  57351-3 0  3620
2 54681  86.5192 149.7455 0013351 171.0696 267.9866 14.92318214    15
